{"type": "FeatureCollection", "features": [ {"type": "Feature", "properties": {"norad_id": 34117, "name": "COSMOS 2251 DEB", "group": "cosmos-2251-debris", "lat": -28.08786531381894, "lon": -18.638922445426346, "alt_km": 768.3746491779648, "timestamp": "2025-12-09T07:41:33.605342+00:00", "meta": {"OBJECT_NAME": "COSMOS 2251 DEB", "OBJECT_ID": "1993-036KN", "EPOCH": "2025-12-08T23:29:29.610816", "MEAN_MOTION": 14.39986569, "ECCENTRICITY": 0.00544364, "INCLINATION": 74.04, "RA_OF_ASC_NODE": 350.777, "ARG_OF_PERICENTER": 68.2823, "MEAN_ANOMALY": 292.4115, "EPHEMERIS_TYPE": 0, "CLASSIFICATION_TYPE": "U", "NORAD_CAT_ID": 34117, "ELEMENT_SET_NO": 999, "REV_AT_EPOCH": 88069, "BSTAR": 0.00081507538, "MEAN_MOTION_DOT": 2.586e-05, "MEAN_MOTION_DDOT": 0}, "tle": {"line1": "1 34117U 93036KN  25342.97881494  .00002586  00000+0  81508-3 0  9998", "line2": "2 34117  74.0400 350.7770 0054436  68.2823 292.4115 14.39986569880698"}}, "geometry": {"type": "Point", "coordinates": [-18.638922445426346, -28.08786531381894]}}, {"type": "Feature", "properties": {"norad_id": 34118, "name": "COSMOS 2251 DEB", "group": "cosmos-2251-debris", "lat": 70.99321525225152, "lon": 19.54120635301907, "alt_km": 538.3620379555905, "timestamp": "2025-12-09T07:41:33.605353+00:00", "meta": {"OBJECT_NAME": "COSMOS 2251 DEB", "OBJECT_ID": "1993-036KP", "EPOCH": "2025-12-08T20:16:47.106624", "MEAN_MOTION": 14.93699744, "ECCENTRICITY": 0.00600022, "INCLINATION": 73.9523, "RA_OF_ASC_NODE": 257.1847, "ARG_OF_PERICENTER": 88.5044, "MEAN_ANOMALY": 335.5634, "EPHEMERIS_TYPE": 0, "CLASSIFICATION_TYPE": "U", "NORAD_CAT_ID": 34118, "ELEMENT_SET_NO": 999, "REV_AT_EPOCH": 89118, "BSTAR": 0.0025407309, "MEAN_MOTION_DOT": 0.00027926, "MEAN_MOTION_DDOT": 0}, "tle": {"line1": "1 34118U 93036KP  25342.84498966  .00027926  00000+0  25407-2 0  9993", "line2": "2 34118  73.9523 257.1847 0060002  88.5044 335.5634 14.93699744891181"}}, "geometry": {"type": "Point", "coordinates": [19.54120635301907, 70.99321525225152]}}, {"type": "Feature", "properties": {"norad_id": 34120, "name": "COSMOS 2251 DEB", "group": "cosmos-2251-debris", "lat": -54.99394496893432, "lon": 66.34172744485245, "alt_km": 1036.0729421306078, "timestamp": "2025-12-09T07:41:33.605364+00:00", "meta": {"OBJECT_NAME": "COSMOS 2251 DEB", "OBJECT_ID": "1993-036KR", "EPOCH": "2025-12-08T18:51:27.985248", "MEAN_MOTION": 13.98677634, "ECCENTRICITY": 0.01817836, "INCLINATION": 73.9918, "RA_OF_ASC_NODE": 223.0692, "ARG_OF_PERICENTER": 51.6433, "MEAN_ANOMALY": 15.2877, "EPHEMERIS_TYPE": 0, "CLASSIFICATION_TYPE": "U", "NORAD_CAT_ID": 34120, "ELEMENT_SET_NO": 999, "REV_AT_EPOCH": 85925, "BSTAR": 0.0006344636, "MEAN_MOTION_DOT": 1.027e-05, "MEAN_MOTION_DDOT": 0}, "tle": {"line1": "1 34120U 93036KR  25342.78574057  .00001027  00000+0  63446-3 0  9995", "line2": "2 34120  73.9918 223.0692 0181783  51.6433  15.2877 13.98677634859256"}}, "geometry": {"type": "Point", "coordinates": [66.34172744485245, -54.99394496893432]}}, {"type": "Feature", "properties": {"norad_id": 34121, "name": "COSMOS 2251 DEB", "group": "cosmos-2251-debris", "lat": 7.033422509199094, "lon": -78.99938274555785, "alt_km": 1048.9329869770163, "timestamp": "2025-12-09T07:41:33.605375+00:00", "meta": {"OBJECT_NAME": "COSMOS 2251 DEB", "OBJECT_ID": "1993-036KS", "EPOCH": "2025-12-08T19:20:44.016000", "MEAN_MOTION": 13.91909479, "ECCENTRICITY": 0.02400602, "INCLINATION": 73.993, "RA_OF_ASC_NODE": 103.9114, "ARG_OF_PERICENTER": 310.1997, "MEAN_ANOMALY": 167.3661, "EPHEMERIS_TYPE": 0, "CLASSIFICATION_TYPE": "U", "NORAD_CAT_ID": 34121, "ELEMENT_SET_NO": 999, "REV_AT_EPOCH": 85070, "BSTAR": 0.0019155456, "MEAN_MOTION_DOT": 3.065e-05, "MEAN_MOTION_DDOT": 0}, "tle": {"line1": "1 34121U 93036KS  25342.80606500  .00003065  00000+0  19155-2 0  9999", "line2": "2 34121  73.9930 103.9114 0240060 310.1997 167.3661 13.91909479850707"}}, "geometry": {"type": "Point", "coordinates": [-78.99938274555785, 7.033422509199094]}}, {"type": "Feature", "properties": {"norad_id": 34122, "name": "COSMOS 2251 DEB", "group": "cosmos-2251-debris", "lat": -60.80679328802718, "lon": -23.96885495861955, "alt_km": 727.7376280952285, "timestamp": "2025-12-09T07:41:33.605385+00:00", "meta": {"OBJECT_NAME": "COSMOS 2251 DEB", "OBJECT_ID": "1993-036KT", "EPOCH": "2025-12-08T15:53:27.638016", "MEAN_MOTION": 14.6496702, "ECCENTRICITY": 0.0084104, "INCLINATION": 74.0364, "RA_OF_ASC_NODE": 126.4784, "ARG_OF_PERICENTER": 24.4978, "MEAN_ANOMALY": 350.4182, "EPHEMERIS_TYPE": 0, "CLASSIFICATION_TYPE": "U", "NORAD_CAT_ID": 34122, "ELEMENT_SET_NO": 999, "REV_AT_EPOCH": 88625, "BSTAR": 0.0016181, "MEAN_MOTION_DOT": 9.107e-05, "MEAN_MOTION_DDOT": 0}, "tle": {"line1": "1 34122U 93036KT  25342.66212544  .00009107  00000+0  16181-2 0  9994", "line2": "2 34122  74.0364 126.4784 0084104  24.4978 350.4182 14.64967020886252"}}, "geometry": {"type": "Point", "coordinates": [-23.96885495861955, -60.80679328802718]}}, {"type": "Feature", "properties": {"norad_id": 34127, "name": "COSMOS 2251 DEB", "group": "cosmos-2251-debris", "lat": -26.75207514762435, "lon": -121.73914623745834, "alt_km": 731.5817229850882, "timestamp": "2025-12-09T07:41:33.605399+00:00", "meta": {"OBJECT_NAME": "COSMOS 2251 DEB", "OBJECT_ID": "1993-036KY", "EPOCH": "2025-12-08T23:10:52.747392", "MEAN_MOTION": 14.31482955, "ECCENTRICITY": 0.01148262, "INCLINATION": 74.1789, "RA_OF_ASC_NODE": 50.6837, "ARG_OF_PERICENTER": 251.6033, "MEAN_ANOMALY": 290.2382, "EPHEMERIS_TYPE": 0, "CLASSIFICATION_TYPE": "U", "NORAD_CAT_ID": 34127, "ELEMENT_SET_NO": 999, "REV_AT_EPOCH": 86717, "BSTAR": 0.0024364644, "MEAN_MOTION_DOT": 6.938e-05, "MEAN_MOTION_DDOT": 0}, "tle": {"line1": "1 34127U 93036KY  25342.96588828  .00006938  00000+0  24365-2 0  9995", "line2": "2 34127  74.1789  50.6837 0114826 251.6033 290.2382 14.31482955867173"}}, "geometry": {"type": "Point", "coordinates": [-121.73914623745834, -26.75207514762435]}}, {"type": "Feature", "properties": {"norad_id": 34128, "name": "COSMOS 2251 DEB", "group": "cosmos-2251-debris", "lat": -71.40823586523597, "lon": -114.84040106837415, "alt_km": 584.3217717299676, "timestamp": "2025-12-09T07:41:33.605410+00:00", "meta": {"OBJECT_NAME": "COSMOS 2251 DEB", "OBJECT_ID": "1993-036KZ", "EPOCH": "2025-12-08T22:41:58.671744", "MEAN_MOTION": 15.00872548, "ECCENTRICITY": 0.00262401, "INCLINATION": 74.0006, "RA_OF_ASC_NODE": 304.4633, "ARG_OF_PERICENTER": 57.2387, "MEAN_ANOMALY": 358.8036, "EPHEMERIS_TYPE": 0, "CLASSIFICATION_TYPE": "U", "NORAD_CAT_ID": 34128, "ELEMENT_SET_NO": 999, "REV_AT_EPOCH": 89110, "BSTAR": 0.0023149815, "MEAN_MOTION_DOT": 0.00029761, "MEAN_MOTION_DDOT": 0}, "tle": {"line1": "1 34128U 93036KZ  25342.94581796  .00029761  00000+0  23150-2 0  9991", "line2": "2 34128  74.0006 304.4633 0026240  57.2387 358.8036 15.00872548891108"}}, "geometry": {"type": "Point", "coordinates": [-114.84040106837415, -71.40823586523597]}}, {"type": "Feature", "properties": {"norad_id": 34129, "name": "COSMOS 2251 DEB", "group": "cosmos-2251-debris", "lat": 29.570558721153873, "lon": 156.86891629735337, "alt_km": 637.3086833902171, "timestamp": "2025-12-09T07:41:33.605421+00:00", "meta": {"OBJECT_NAME": "COSMOS 2251 DEB", "OBJECT_ID": "1993-036LA", "EPOCH": "2025-12-08T18:00:22.133088", "MEAN_MOTION": 14.75626001, "ECCENTRICITY": 0.00327943, "INCLINATION": 74.0353, "RA_OF_ASC_NODE": 347.332, "ARG_OF_PERICENTER": 70.1423, "MEAN_ANOMALY": 290.328, "EPHEMERIS_TYPE": 0, "CLASSIFICATION_TYPE": "U", "NORAD_CAT_ID": 34129, "ELEMENT_SET_NO": 999, "REV_AT_EPOCH": 61239, "BSTAR": 0.0018143666, "MEAN_MOTION_DOT": 0.00012484, "MEAN_MOTION_DDOT": 0}, "tle": {"line1": "1 34129U 93036LA  25342.75025617  .00012484  00000+0  18144-2 0  9997", "line2": "2 34129  74.0353 347.3320 0032794  70.1423 290.3280 14.75626001612394"}}, "geometry": {"type": "Point", "coordinates": [156.86891629735337, 29.570558721153873]}}, {"type": "Feature", "properties": {"norad_id": 34136, "name": "COSMOS 2251 DEB", "group": "cosmos-2251-debris", "lat": -64.84657989280743, "lon": -93.01822816535481, "alt_km": 622.0265061973951, "timestamp": "2025-12-09T07:41:33.605431+00:00", "meta": {"OBJECT_NAME": "COSMOS 2251 DEB", "OBJECT_ID": "1993-036LH", "EPOCH": "2025-12-08T23:15:00.482112", "MEAN_MOTION": 14.80036363, "ECCENTRICITY": 0.00861022, "INCLINATION": 74.0209, "RA_OF_ASC_NODE": 50.0695, "ARG_OF_PERICENTER": 174.0347, "MEAN_ANOMALY": 1.777, "EPHEMERIS_TYPE": 0, "CLASSIFICATION_TYPE": "U", "NORAD_CAT_ID": 34136, "ELEMENT_SET_NO": 999, "REV_AT_EPOCH": 89954, "BSTAR": 0.00065916248, "MEAN_MOTION_DOT": 5.284e-05, "MEAN_MOTION_DDOT": 0}, "tle": {"line1": "1 34136U 93036LH  25342.96875558  .00005284  00000+0  65916-3 0  9995", "line2": "2 34136  74.0209  50.0695 0086102 174.0347   1.7770 14.80036363899540"}}, "geometry": {"type": "Point", "coordinates": [-93.01822816535481, -64.84657989280743]}}, {"type": "Feature", "properties": {"norad_id": 34139, "name": "COSMOS 2251 DEB", "group": "cosmos-2251-debris", "lat": -46.31724640023513, "lon": 98.02680092580661, "alt_km": 709.767842986782, "timestamp": "2025-12-09T07:41:33.605442+00:00", "meta": {"OBJECT_NAME": "COSMOS 2251 DEB", "OBJECT_ID": "1993-036LL", "EPOCH": "2025-12-08T21:03:41.040576", "MEAN_MOTION": 14.58976877, "ECCENTRICITY": 0.00425595, "INCLINATION": 74.0313, "RA_OF_ASC_NODE": 261.4237, "ARG_OF_PERICENTER": 333.1195, "MEAN_ANOMALY": 90.3901, "EPHEMERIS_TYPE": 0, "CLASSIFICATION_TYPE": "U", "NORAD_CAT_ID": 34139, "ELEMENT_SET_NO": 999, "REV_AT_EPOCH": 88093, "BSTAR": 0.0018891381, "MEAN_MOTION_DOT": 8.959e-05, "MEAN_MOTION_DDOT": 0}, "tle": {"line1": "1 34139U 93036LL  25342.87755834  .00008959  00000+0  18891-2 0  9993", "line2": "2 34139  74.0313 261.4237 0042559 333.1195  90.3901 14.58976877880937"}}, "geometry": {"type": "Point", "coordinates": [98.02680092580661, -46.31724640023513]}}]}